GLOBALSTAR M068         
1 32266U 07048D   25329.84147394 -.00000082  00000+0  11973-3 0  9993
2 32266  51.9855 169.4759 0002029 108.3915 265.3502 12.62834051837985
GLOBALSTAR M079         
1 37188U 10054A   25329.57665516 -.00000088  00000+0  87237-4 0  9996
2 37188  52.0061   8.4912 0000064 158.4522   6.1032 12.62268745696831
GLOBALSTAR M074         
1 37189U 10054B   25329.84201177 -.00000078  00000+0  14269-3 0  9999
2 37189  52.0038   6.9803 0000371  84.9641  86.0044 12.62263720697473
GLOBALSTAR M076         
1 37190U 10054C   25329.43832380 -.00000091  00000+0  71619-4 0  9990
2 37190  52.0054   8.3967 0000242  57.2542 317.0102 12.62267583697147
GLOBALSTAR M077         
1 37191U 10054D   25329.80815698 -.00000079  00000+0  43135-4 0  9993
2 37191  52.0119 336.4493 0017562 301.0672 230.0058 11.82670056697357
GLOBALSTAR M075         
1 37192U 10054E   25329.55003858 -.00000085  00000+0  10280-3 0  9994
2 37192  51.9966  50.2206 0000614 116.5444 347.0568 12.62269891696225
GLOBALSTAR M073         
1 37193U 10054F   25329.72353895 -.00000084  00000+0  11288-3 0  9991
2 37193  52.0078 323.6393 0000295  20.9614 149.5959 12.62264608698231
GLOBALSTAR M083         
1 37739U 11033A   25329.57818433 -.00000070  00000+0  19083-3 0  9998
2 37739  51.9865 272.5884 0000507  42.5206 129.1008 12.62264791667237
GLOBALSTAR M088         
1 37740U 11033B   25329.83381499 -.00000078  00000+0  14372-3 0  9990
2 37740  52.0188 177.7457 0001188  89.9175 282.9102 12.62270727662815
GLOBALSTAR M091         
1 37741U 11033C   25329.76817770 -.00000102  00000+0  91432-5 0  9991
2 37741  51.9968 141.2106 0001003 107.9062 266.1909 12.62262083663590
GLOBALSTAR M085         
1 37742U 11033D   25329.59618875 -.00000096  00000+0  43811-4 0  9997
2 37742  52.0120  92.8463 0000814 129.2283 243.4628 12.62266872664082
GLOBALSTAR M081         
1 37743U 11033E   25329.62259610 -.00000104  00000+0 -19196-5 0  9991
2 37743  51.9952  95.4331 0000673 115.1167 257.9488 12.62270570664236
GLOBALSTAR M089         
1 37744U 11033F   25329.68822530 -.00000097  00000+0  40209-4 0  9993
2 37744  51.9946  49.4305 0000631  95.3568  37.1519 12.62272495665083
GLOBALSTAR M084         
1 38040U 11080A   25329.63097660 -.00000070  00000+0  18749-3 0  9992
2 38040  52.0018 276.9812 0000900  45.7463 125.1975 12.62265702643057
GLOBALSTAR M080         
1 38041U 11080B   25329.60249153 -.00000075  00000+0  15825-3 0  9993
2 38041  52.0069 278.7154 0000609 101.4358  69.8723 12.62271423643177
GLOBALSTAR M082         
1 38042U 11080C   25329.45964199 -.00000072  00000+0  17989-3 0  9991
2 38042  52.0073 234.6297 0000749  89.6009  82.0440 12.62265363643862
GLOBALSTAR M092         
1 38043U 11080D   25329.75004846 -.00000100  00000+0  22980-4 0  9999
2 38043  52.0106 324.1316 0000379  64.9004 106.4997 12.62267794642358
GLOBALSTAR M090         
1 38044U 11080E   25329.08310170 -.00000069  00000+0  19168-3 0  9993
2 38044  52.0118 229.6666 0000715  68.1061  70.6358 12.62264567643935
GLOBALSTAR M086         
1 38045U 11080F   25329.51060574 -.00000064  00000+0  22263-3 0  9997
2 38045  51.9891 228.6266 0001027   0.8828 170.0355 12.62280268643936
GLOBALSTAR M097         
1 39072U 13005A   25329.73849397 -.00000099  00000+0  24535-4 0  9992
2 39072  52.0016 142.6512 0000836  96.7066 263.3896 12.62267741591212
GLOBALSTAR M093         
1 39073U 13005B   25329.71244532 -.00000105  00000+0 -86561-5 0  9998
2 39073  52.0076 136.0004 0000669 108.7235 251.3705 12.62270755591167
GLOBALSTAR M094         
1 39074U 13005C   25329.47467082 -.00000091  00000+0  71854-4 0  9990
2 39074  51.9973  51.0424 0000402 141.9717 218.1178 12.62264993592740
GLOBALSTAR M096         
1 39075U 13005D   25329.64614470 -.00000097  00000+0  37155-4 0  9997
2 39075  52.0062  99.1597 0000743 125.4785 234.6151 12.62268993591686
GLOBALSTAR M078         
1 39076U 13005E   25329.85777742 -.00000089  00000+0  84409-4 0  9998
2 39076  51.9847 182.8118 0001268 130.5005 229.5973 12.62272210590333
GLOBALSTAR M095         
1 39077U 13005F   25329.80473758 -.00000097  00000+0  35186-4 0  9991
2 39077  52.0052 180.2875 0000853 108.9828 251.1131 12.62266851590181
GLOBALSTAR M087         
1 52888U 22064A   25329.65931402 -.00000094  00000+0  54216-4 0  9991
2 52888  52.0010 322.0828 0000133  65.0798 295.0082 12.62260638165439
